NORAD_CAT_ID,OBJECT_NAME,OBJECT_TYPE,EPOCH,MEAN_MOTION,ECCENTRICITY,INCLINATION,RA_OF_ASC_NODE,ARG_OF_PERICENTER,MEAN_ANOMALY,BSTAR,MEAN_MOTION_DOT,MEAN_MOTION_DDOT,TLE_LINE0,TLE_LINE1,TLE_LINE2,SEMIMAJOR_AXIS,PERIOD,APOGEE,PERIGEE,DECAYED
53184.0,STARLINK-4257,PAYLOAD,2022-11-13 00:00:00,15.73238619,0.0008506,53.2135,180.8224,277.2053,171.2446,-0.00052682,-0.00074219,0.0,0 STARLINK-4257,1 53184U 22083BE  22317.00001157 -.00074219  00000-0 -52682-3 0  9996,2 53184  53.2135 180.8224 0008506 277.2053 171.2446 15.73238619  1306,6727.785,91.531,355.37300000000016,343.927,0.0
53184.0,STARLINK-4257,PAYLOAD,2022-11-13 14:00:01,15.73123739,0.0008435,53.2139,177.9331,275.7664,238.2848,0.00016914,0.00023144,0.0,0 STARLINK-4257,1 53184U 22083BE  22317.58334491  .00023144  00000-0  16914-3 0  9996,2 53184  53.2139 177.9331 0008435 275.7664 238.2848 15.73123739 19381,6728.113,91.538,355.653,344.302,0.0
53184.0,STARLINK-4257,PAYLOAD,2022-11-13 22:00:00,15.73135807,0.0008346,53.2138,176.2858,278.956,323.9461,0.00038802,0.00054136,0.0,0 STARLINK-4257,1 53184U 22083BE  22317.91667824  .00054136  00000-0  38802-3 0  9997,2 53184  53.2138 176.2858 0008346 278.9560 323.9461 15.73135807  1302,6728.078,91.537,355.55800000000005,344.32800000000015,0.0
53184.0,STARLINK-4257,PAYLOAD,2022-11-14 14:00:01,15.73228201,0.0008406,53.2137,172.9849,278.2769,142.4266,-0.00011966,-0.00017449,0.0,0 STARLINK-4257,1 53184U 22083BE  22318.58334491 -.00017449  00000-0 -11966-3 0  9992,2 53184  53.2137 172.9849 0008406 278.2769 142.4266 15.73228201 19537,6727.815,91.532,355.335,344.024,0.0
53184.0,STARLINK-4257,PAYLOAD,2022-11-14 22:00:00,15.73175459,0.0008484,53.2152,171.3374,278.8402,230.8246,0.00091094,0.00129308,0.0,0 STARLINK-4257,1 53184U 22083BE  22318.91667824  .00129308  00000-0  91094-3 0  9994,2 53184  53.2152 171.3374 0008484 278.8402 230.8246 15.73175459  1308,6727.965,91.535,355.538,344.122,0.0
53184.0,STARLINK-4257,PAYLOAD,2022-11-15 14:00:01,15.73216219,0.0008519,53.2144,168.0361,279.4442,48.1081,0.00028735,0.00040002,0.0,0 STARLINK-4257,1 53184U 22083BE  22319.58334491  .00040002  00000-0  28735-3 0  9994,2 53184  53.2144 168.0361 0008519 279.4442  48.1081 15.73216219 19696,6727.849,91.532,355.445,343.982,0.0
53184.0,STARLINK-4257,PAYLOAD,2022-11-15 22:00:00,15.73205111,0.0008535999999999,53.2148,166.3889,281.3115,135.2167,0.00013449,0.00018329,0.0,0 STARLINK-4257,1 53184U 22083BE  22319.91667824  .00018329  00000-0  13449-3 0  9993,2 53184  53.2148 166.3889 0008536 281.3115 135.2167 15.73205111 19742,6727.880999999999,91.533,355.48900000000015,344.00300000000016,0.0
53184.0,STARLINK-4257,PAYLOAD,2022-11-16 14:00:01,15.73194915,0.000841,53.2165,163.0866,279.585,314.8983,0.00011055,0.0001494,0.0,0 STARLINK-4257,1 53184U 22083BE  22320.58335648  .00014940  00000-0  11055-3 0  9990,2 53184  53.2165 163.0866 0008410 279.5850 314.8983 15.73194915  1309,6727.91,91.533,355.43300000000005,344.116,0.0
53184.0,STARLINK-4257,PAYLOAD,2022-11-16 22:00:08,15.73205095,0.0008394,53.2174,161.439,280.68,43.125,-1.2216e-05,-2.351e-05,0.0,0 STARLINK-4257,1 53184U 22083BE  22320.91675926 -.00002351  00000-0 -12216-4 0  9999,2 53184  53.2174 161.4390 0008394 280.6800  43.1250 15.73205095  1303,6727.880999999999,91.533,355.39300000000014,344.098,0.0
53184.0,STARLINK-4257,PAYLOAD,2022-11-17 14:00:01,15.73210857,0.0008654,53.2148,158.1389,280.5408,220.7127,4.6634e-05,5.934e-05,0.0,0 STARLINK-4257,1 53184U 22083BE  22321.58334491  .00005934  00000-0  46634-4 0  9991,2 53184  53.2148 158.1389 0008654 280.5408 220.7127 15.73210857  1305,6727.864000000001,91.533,355.552,343.907,0.0
53184.0,STARLINK-4257,PAYLOAD,2022-11-17 22:00:00,15.73181422,0.0008747,53.2148,156.4914,282.8784,307.3272,6.8667e-05,9.029e-05,0.0,0 STARLINK-4257,1 53184U 22083BE  22321.91667824  .00009029  00000-0  68667-4 0  9996,2 53184  53.2148 156.4914 0008747 282.8784 307.3272 15.73181422 20067,6727.948,91.534,355.6980000000001,343.92800000000005,0.0
53184.0,STARLINK-4257,PAYLOAD,2022-11-18 14:00:01,15.73250512,0.0008742,53.2144,153.1906,281.9254,126.12,-0.00040262,-0.0005702,0.0,0 STARLINK-4257,1 53184U 22083BE  22322.58334491 -.00057020  00000-0 -40262-3 0  9997,2 53184  53.2144 153.1906 0008742 281.9254 126.1200 15.73250512 20161,6727.751,91.53,355.49800000000016,343.735,0.0
53184.0,STARLINK-4257,PAYLOAD,2022-11-18 22:00:00,15.73216505,0.0008828,53.2143,151.543,283.6809,213.3282,-6.9478e-05,-0.00010403,0.0,0 STARLINK-4257,1 53184U 22083BE  22322.91667824 -.00010403  00000-0 -69478-4 0  9998,2 53184  53.2143 151.5430 0008828 283.6809 213.3282 15.73216505  1302,6727.848000000001,91.532,355.652,343.774,0.0
53184.0,STARLINK-4257,PAYLOAD,2022-11-19 06:00:00,15.73217038,0.0008846,53.2144,149.8917,282.5096,303.4444,-0.00033636,-0.00047726,0.0,0 STARLINK-4257,1 53184U 22083BE  22323.25001157 -.00047726  00000-0 -33636-3 0  9991,2 53184  53.2144 149.8917 0008846 282.5096 303.4444 15.73217038 20279,6727.847,91.532,355.663,343.76,0.0
53184.0,STARLINK-4257,PAYLOAD,2022-11-19 14:00:01,15.73241538,0.0008814,53.2146,148.2418,284.3245,30.5589,0.00034643,0.00048465,0.0,0 STARLINK-4257,1 53184U 22083BE  22323.58334491  .00048465  00000-0  34643-3 0  9995,2 53184  53.2146 148.2418 0008814 284.3245  30.5589 15.73241538 20327,6727.776999999999,91.531,355.57199999999995,343.712,0.0
53184.0,STARLINK-4257,PAYLOAD,2022-11-19 22:00:00,15.73212678,0.0008866,53.2145,146.5941,285.0754,118.7561,-9.1984e-05,-0.00013561,0.0,0 STARLINK-4257,1 53184U 22083BE  22323.91667824 -.00013561  00000-0 -91984-4 0  9994,2 53184  53.2145 146.5941 0008866 285.0754 118.7561 15.73212678 20375,6727.859,91.532,355.689,343.759,0.0
53184.0,STARLINK-4257,PAYLOAD,2022-11-20 14:00:01,15.73259847,0.0008789,53.2141,143.2933,284.1803,297.5065,-0.00049138,-0.00069382,0.0,0 STARLINK-4257,1 53184U 22083BE  22324.58334491 -.00069382  00000-0 -49138-3 0  9994,2 53184  53.2141 143.2933 0008789 284.1803 297.5065 15.73259847 20481,6727.725,91.53,355.50300000000016,343.677,0.0
53184.0,STARLINK-4257,PAYLOAD,2022-11-20 22:00:00,15.73193107,0.0008904999999999,53.2138,141.6454,285.7056,24.9576,-9.7993e-05,-0.00014393,0.0,0 STARLINK-4257,1 53184U 22083BE  22324.91667824 -.00014393  00000-0 -97993-4 0  9995,2 53184  53.2138 141.6454 0008905 285.7056  24.9576 15.73193107  1309,6727.915,91.534,355.771,343.789,0.0
53184.0,STARLINK-4257,PAYLOAD,2022-11-21 06:00:00,15.73162891,0.0008919,53.214,139.9938,284.93,114.6686,0.00038139,0.00053272,0.0,0 STARLINK-4257,1 53184U 22083BE  22325.25001157  .00053272  00000-0  38139-3 0  9997,2 53184  53.2140 139.9938 0008919 284.9300 114.6686 15.73162891 20583,6728.001,91.535,355.867,343.865,0.0
53184.0,STARLINK-4257,PAYLOAD,2022-11-21 14:00:01,15.73243935,0.0008799,53.2141,138.3442,286.0481,202.4503,-0.00014778,-0.00021411,0.0,0 STARLINK-4257,1 53184U 22083BE  22325.58334491 -.00021411  00000-0 -14778-3 0  9998,2 53184  53.2141 138.3442 0008799 286.0481 202.4503 15.73243935  1308,6727.77,91.531,355.555,343.715,0.0
53184.0,STARLINK-4257,PAYLOAD,2022-11-22 00:00:00,15.73212576,0.0008994999999999,53.2137,136.2836,287.833,41.8761,-7.698500000000001e-06,-1.717e-05,0.0,0 STARLINK-4257,1 53184U 22083BE  22326.00001157 -.00001717  00000-0 -76985-5 0  9993,2 53184  53.2137 136.2836 0008995 287.8330  41.8761 15.73212576  1305,6727.859,91.532,355.776,343.673,0.0
53184.0,STARLINK-4257,PAYLOAD,2022-11-22 06:00:02,15.73187158,0.0008867,53.2139,135.0446,286.4631,20.03,0.00011573,0.00015669,0.0,0 STARLINK-4257,1 53184U 22083BE  22326.25002315  .00015669  00000-0  11573-3 0  9996,2 53184  53.2139 135.0446 0008867 286.4631  20.0300 15.73187158 20742,6727.932,91.534,355.76199999999994,343.831,0.0
53184.0,STARLINK-4257,PAYLOAD,2022-11-22 14:00:01,15.73233971,0.0008843,53.2138,133.3955,286.6315,108.7635,-0.00062444,-0.00087718,0.0,0 STARLINK-4257,1 53184U 22083BE  22326.58335648 -.00087718  00000-0 -62444-3 0  9999,2 53184  53.2138 133.3955 0008843 286.6315 108.7635 15.73233971  1303,6727.7980000000025,91.531,355.61300000000006,343.714,0.0
53184.0,STARLINK-4257,PAYLOAD,2022-11-22 22:00:00,15.73161234,0.0008944,53.2135,131.7476,288.3065,195.954,0.00032502,0.00045259,0.0,0 STARLINK-4257,1 53184U 22083BE  22326.91667824  .00045259  00000-0  32502-3 0  9994,2 53184  53.2135 131.7476 0008944 288.3065 195.9540 15.73161234 20859,6728.005999999999,91.535,355.88800000000015,343.853,0.0
53184.0,STARLINK-4257,PAYLOAD,2022-11-23 06:00:00,15.7314649,0.0008935,53.2139,130.0959,287.6214,285.5548,0.00025673,0.00035553,0.0,0 STARLINK-4257,1 53184U 22083BE  22327.25001157  .00035553  00000-0  25673-3 0  9990,2 53184  53.2139 130.0959 0008935 287.6214 285.5548 15.73146490 20906,6728.0480000000025,91.536,355.9240000000001,343.901,0.0
53184.0,STARLINK-4257,PAYLOAD,2022-11-23 14:00:01,15.73192447,0.0008857999999999,53.2141,128.4468,288.8783,13.1697,0.00011708,0.00015863,0.0,0 STARLINK-4257,1 53184U 22083BE  22327.58334491  .00015863  00000-0  11708-3 0  9992,2 53184  53.2141 128.4468 0008858 288.8783  13.1697 15.73192447  1309,6727.917,91.534,355.741,343.82199999999995,0.0
53184.0,STARLINK-4257,PAYLOAD,2022-11-24 00:00:00,15.73243273,0.0008969,53.2139,126.3859,291.3403,211.86,-0.00042573,-0.00060224,0.0,0 STARLINK-4257,1 53184U 22083BE  22328.00001157 -.00060224  00000-0 -42573-3 0  9997,2 53184  53.2139 126.3859 0008969 291.3403 211.8600 15.73243273  1303,6727.772,91.531,355.671,343.603,0.0
53184.0,STARLINK-4257,PAYLOAD,2022-11-24 06:00:02,15.73164832,0.0008968,53.2141,125.1471,290.2612,189.7406,0.00051645,0.00072533,0.0,0 STARLINK-4257,1 53184U 22083BE  22328.25002315  .00072533  00000-0  51645-3 0  9995,2 53184  53.2141 125.1471 0008968 290.2612 189.7406 15.73164832 21067,6727.995,91.535,355.894,343.827,0.0
53184.0,STARLINK-4257,PAYLOAD,2022-11-24 14:00:01,15.73253095,0.0008892999999999,53.2142,123.4984,291.3489,277.4964,-0.0003001,-0.00042741,0.0,0 STARLINK-4257,1 53184U 22083BE  22328.58334491 -.00042741  00000-0 -30010-3 0  9997,2 53184  53.2142 123.4984 0008893 291.3489 277.4964 15.73253095  1308,6727.744000000002,91.53,355.592,343.626,0.0
